STARLINK-37163          
1 68264U 26055C   26086.83335647 -.00919786  27805-3 -20140-2 0  9991
2 68264  53.1583 246.7973 0000792  57.0651   2.6845 15.97479717  2557
STARLINK-37133          
1 68265U 26055D   26086.83335647 -.00918528  27702-3 -20246-2 0  9998
2 68265  53.1583 246.8032 0000803  58.8980 358.1969 15.97360162  2551
STARLINK-37042          
1 68266U 26055E   26086.83335647 -.00926251  28203-3 -20112-2 0  9990
2 68266  53.1582 246.7906 0000848  60.1700   3.0600 15.97632100  2557
STARLINK-37103          
1 68267U 26055F   26086.83335647 -.00926125  28236-3 -19959-2 0  9994
2 68267  53.1584 246.7841 0000839  60.8053   5.4046 15.97766463  2556
STARLINK-36999          
1 68268U 26055G   26086.83335647 -.00926206  28277-3 -19824-2 0  9991
2 68268  53.1584 246.7787 0000797  56.0211  12.8711 15.97890093  2550
STARLINK-36962          
1 68269U 26055H   26086.83335647 -.00925337  28268-3 -19663-2 0  9997
2 68269  53.1584 246.7727 0000809  59.2090  12.5358 15.98019104  2550
STARLINK-37028          
1 68270U 26055J   26086.83335647 -.01001031  32704-3 -20873-2 0  9991
2 68270  53.1584 246.7534 0000792  63.8641  16.9267 15.98371872  2552
STARLINK-37029          
1 68271U 26055K   26086.83335647 -.00967265  30689-3 -20331-2 0  9990
2 68271  53.1583 246.7600 0000810  61.5930  16.2609 15.98222830  2555
STARLINK-36974          
1 68272U 26055L   26086.83335647 -.01075956  37346-3 -22216-2 0  9990
2 68272  53.1582 246.7460 0000679  68.0223  16.4487 15.98561084  2552
STARLINK-37019          
1 68273U 26055M   26086.83335647 -.01090702  38328-3 -22370-2 0  9999
2 68273  53.1582 246.7403 0000873  57.4107  29.5836 15.98683174  2557
STARLINK-37129          
1 68274U 26055N   26086.83335647 -.01134630  41237-3 -23094-2 0  9996
2 68274  53.1582 246.7344 0000903  60.7020  29.2348 15.98826079  2555
STARLINK-37123          
1 68275U 26055P   26086.83335647 -.01168340  43546-3 -23624-2 0  9996
2 68275  53.1584 246.7295 0000778  65.8993  26.4582 15.98949728  2554
